start=new Date('2022-05-30T00:00:00.000Z').valueOf();
sats=[{"MEAN_ELEMENT_THEORY":"SGP4","RCS_SIZE":"LARGE","ECCENTRICITY":"0.00014880","OBJECT_ID":"2021-038N","DECAY_DATE":null,"MEAN_MOTION_DOT":"0.00001362","LAUNCH_DATE":"2021-05-04","TIME_SYSTEM":"UTC","PERIAPSIS":"546.176","REV_AT_EPOCH":"5907","TLE_LINE1":"1 48365U 21038N   22149.50773151  .00001362  00000-0  11031-3 0  9998","EPHEMERIS_TYPE":"0","ARG_OF_PERICENTER":"54.5143","MEAN_MOTION":"15.06402465","CLASSIFICATION_TYPE":"U","SITE":"AFETR","GP_ID":"204854709","FILE":"3470904","TLE_LINE2":"2 48365  53.0548  72.5092 0001488  54.5143 305.5984 15.06402465 59079","EPOCH":"2022-05-29T12:11:08.002464","BSTAR":"0.00011031000000","ELEMENT_SET_NO":"999","OBJECT_TYPE":"PAYLOAD","COUNTRY_CODE":"US","PERIOD":"95.592","MEAN_MOTION_DDOT":"0.0000000000000","REF_FRAME":"TEME","NORAD_CAT_ID":"48365","RA_OF_ASC_NODE":"72.5092","OBJECT_NAME":"STARLINK-2608","MEAN_ANOMALY":"305.5984","APOAPSIS":"548.236","INCLINATION":"53.0548","SEMIMAJOR_AXIS":"6925.341","CENTER_NAME":"EARTH"},{"CLASSIFICATION_TYPE":"U","MEAN_MOTION":"15.06397502","TLE_LINE1":"1 48366U 21038P   22149.49530093  .00000646  00000-0  62250-4 0  9997","REV_AT_EPOCH":"5913","EPHEMERIS_TYPE":"0","ARG_OF_PERICENTER":"66.1878","LAUNCH_DATE":"2021-05-04","PERIAPSIS":"545.986","TIME_SYSTEM":"UTC","OBJECT_ID":"2021-038P","RCS_SIZE":"LARGE","ECCENTRICITY":"0.00017840","MEAN_ELEMENT_THEORY":"SGP4","MEAN_MOTION_DOT":"0.00000646","DECAY_DATE":null,"SEMIMAJOR_AXIS":"6925.356","CENTER_NAME":"EARTH","INCLINATION":"53.0569","APOAPSIS":"548.457","OBJECT_NAME":"STARLINK-2631","MEAN_ANOMALY":"293.9298","RA_OF_ASC_NODE":"67.5551","ELEMENT_SET_NO":"999","NORAD_CAT_ID":"48366","REF_FRAME":"TEME","COUNTRY_CODE":"US","OBJECT_TYPE":"PAYLOAD","PERIOD":"95.592","MEAN_MOTION_DDOT":"0.0000000000000","GP_ID":"204854457","FILE":"3470904","SITE":"AFETR","EPOCH":"2022-05-29T11:53:14.000352","BSTAR":"0.00006225000000","TLE_LINE2":"2 48366  53.0569  67.5551 0001784  66.1878 293.9298 15.06397502 59130"},{"OBJECT_NAME":"STARLINK-2643","MEAN_ANOMALY":"296.6878","APOAPSIS":"548.573","RA_OF_ASC_NODE":"66.3914","SEMIMAJOR_AXIS":"6925.371","CENTER_NAME":"EARTH","INCLINATION":"53.0555","EPOCH":"2022-05-29T18:10:05.292480","BSTAR":"0.00002491600000","TLE_LINE2":"2 48367  53.0555  66.3914 0001931  63.4309 296.6878 15.06392660 59177","SITE":"AFETR","GP_ID":"204890073","FILE":"3471362","MEAN_MOTION_DDOT":"0.0000000000000","COUNTRY_CODE":"US","OBJECT_TYPE":"PAYLOAD","PERIOD":"95.593","NORAD_CAT_ID":"48367","REF_FRAME":"TEME","ELEMENT_SET_NO":"999","EPHEMERIS_TYPE":"0","ARG_OF_PERICENTER":"63.4309","REV_AT_EPOCH":"5917","TLE_LINE1":"1 48367U 21038Q   22149.75700570  .00000089  00000-0  24916-4 0  9994","CLASSIFICATION_TYPE":"U","MEAN_MOTION":"15.06392660","MEAN_MOTION_DOT":"0.00000089","DECAY_DATE":null,"OBJECT_ID":"2021-038Q","MEAN_ELEMENT_THEORY":"SGP4","ECCENTRICITY":"0.00019310","RCS_SIZE":"LARGE","TIME_SYSTEM":"UTC","PERIAPSIS":"545.899","LAUNCH_DATE":"2021-05-04"},{"MEAN_MOTION":"15.03948894","CLASSIFICATION_TYPE":"U","REV_AT_EPOCH":"5920","TLE_LINE1":"1 48368U 21038R   22149.91827034 -.00001346  00000-0 -76767-4 0  9998","EPHEMERIS_TYPE":"0","ARG_OF_PERICENTER":"52.0172","LAUNCH_DATE":"2021-05-04","TIME_SYSTEM":"UTC","PERIAPSIS":"553.311","MEAN_ELEMENT_THEORY":"SGP4","RCS_SIZE":"LARGE","ECCENTRICITY":"0.00020560","OBJECT_ID":"2021-038R","DECAY_DATE":null,"MEAN_MOTION_DOT":"-0.00001346","INCLINATION":"53.0570","SEMIMAJOR_AXIS":"6932.871","CENTER_NAME":"EARTH","RA_OF_ASC_NODE":"65.7659","OBJECT_NAME":"STARLINK-2623","MEAN_ANOMALY":"308.1001","APOAPSIS":"556.161","ELEMENT_SET_NO":"999","COUNTRY_CODE":"US","MEAN_MOTION_DDOT":"0.0000000000000","OBJECT_TYPE":"PAYLOAD","PERIOD":"95.748","NORAD_CAT_ID":"48368","REF_FRAME":"TEME","SITE":"AFETR","GP_ID":"204890320","FILE":"3471362","TLE_LINE2":"2 48368  53.0570  65.7659 0002056  52.0172 308.1001 15.03948894 59209","BSTAR":"-0.00007676700000","EPOCH":"2022-05-29T22:02:18.557376"},{"FILE":"3470904","GP_ID":"204854209","SITE":"AFETR","EPOCH":"2022-05-29T11:42:37.243584","BSTAR":"0.00002628800000","TLE_LINE2":"2 48369  53.0580  67.5902 0002171  56.5040 303.6156 15.06394516 59135","ELEMENT_SET_NO":"999","REF_FRAME":"TEME","NORAD_CAT_ID":"48369","PERIOD":"95.592","COUNTRY_CODE":"US","OBJECT_TYPE":"PAYLOAD","MEAN_MOTION_DDOT":"0.0000000000000","APOAPSIS":"548.734","OBJECT_NAME":"STARLINK-2641","MEAN_ANOMALY":"303.6156","RA_OF_ASC_NODE":"67.5902","SEMIMAJOR_AXIS":"6925.365","CENTER_NAME":"EARTH","INCLINATION":"53.0580","OBJECT_ID":"2021-038S","RCS_SIZE":"LARGE","ECCENTRICITY":"0.00021710","MEAN_ELEMENT_THEORY":"SGP4","MEAN_MOTION_DOT":"0.00000110","DECAY_DATE":null,"LAUNCH_DATE":"2021-05-04","PERIAPSIS":"545.727","TIME_SYSTEM":"UTC","REV_AT_EPOCH":"5913","TLE_LINE1":"1 48369U 21038S   22149.48793106  .00000110  00000-0  26288-4 0  9992","EPHEMERIS_TYPE":"0","ARG_OF_PERICENTER":"56.5040","CLASSIFICATION_TYPE":"U","MEAN_MOTION":"15.06394516"},{"MEAN_MOTION_DOT":"-0.00003256","DECAY_DATE":null,"OBJECT_ID":"2021-038T","MEAN_ELEMENT_THEORY":"SGP4","ECCENTRICITY":"0.00018090","RCS_SIZE":"LARGE","TIME_SYSTEM":"UTC","PERIAPSIS":"546.050","LAUNCH_DATE":"2021-05-04","ARG_OF_PERICENTER":"54.8310","EPHEMERIS_TYPE":"0","TLE_LINE1":"1 48370U 21038T   22149.81600494 -.00003256  00000-0 -19991-3 0  9996","REV_AT_EPOCH":"5918","CLASSIFICATION_TYPE":"U","MEAN_MOTION":"15.06370763","EPOCH":"2022-05-29T19:35:02.826816","BSTAR":"-0.00019991000000","TLE_LINE2":"2 48370  53.0578  66.1196 0001809  54.8310 305.2848 15.06370763 59181","SITE":"AFETR","GP_ID":"204889323","FILE":"3471362","COUNTRY_CODE":"US","OBJECT_TYPE":"PAYLOAD","PERIOD":"95.594","MEAN_MOTION_DDOT":"0.0000000000000","REF_FRAME":"TEME","NORAD_CAT_ID":"48370","ELEMENT_SET_NO":"999","OBJECT_NAME":"STARLINK-2621","MEAN_ANOMALY":"305.2848","APOAPSIS":"548.556","RA_OF_ASC_NODE":"66.1196","SEMIMAJOR_AXIS":"6925.438","CENTER_NAME":"EARTH","INCLINATION":"53.0578"},{"TLE_LINE1":"1 48371U 21038U   22149.74599573  .00024314  00000-0  16509-2 0  9991","REV_AT_EPOCH":"5917","EPHEMERIS_TYPE":"0","ARG_OF_PERICENTER":"93.0750","MEAN_MOTION":"15.06280193","CLASSIFICATION_TYPE":"U","ECCENTRICITY":"0.00013730","RCS_SIZE":"LARGE","MEAN_ELEMENT_THEORY":"SGP4","OBJECT_ID":"2021-038U","DECAY_DATE":null,"MEAN_MOTION_DOT":"0.00024314","LAUNCH_DATE":"2021-05-04","PERIAPSIS":"546.630","TIME_SYSTEM":"UTC","RA_OF_ASC_NODE":"66.4398","APOAPSIS":"548.532","OBJECT_NAME":"STARLINK-2589","MEAN_ANOMALY":"267.0396","INCLINATION":"53.0563","SEMIMAJOR_AXIS":"6925.716","CENTER_NAME":"EARTH","FILE":"3471362","GP_ID":"204890574","SITE":"AFETR","TLE_LINE2":"2 48371  53.0563  66.4398 0001373  93.0750 267.0396 15.06280193 59171","EPOCH":"2022-05-29T17:54:14.031072","BSTAR":"0.00165090000000","ELEMENT_SET_NO":"999","NORAD_CAT_ID":"48371","REF_FRAME":"TEME","COUNTRY_CODE":"US","OBJECT_TYPE":"PAYLOAD","MEAN_MOTION_DDOT":"0.0000000000000","PERIOD":"95.600"},{"CENTER_NAME":"EARTH","SEMIMAJOR_AXIS":"6925.374","INCLINATION":"53.0565","APOAPSIS":"548.744","OBJECT_NAME":"STARLINK-2572","MEAN_ANOMALY":"300.3224","RA_OF_ASC_NODE":"65.8614","REF_FRAME":"TEME","NORAD_CAT_ID":"48372","COUNTRY_CODE":"US","OBJECT_TYPE":"PAYLOAD","MEAN_MOTION_DDOT":"0.0000000000000","PERIOD":"95.593","ELEMENT_SET_NO":"999","BSTAR":"-0.00009205900000","EPOCH":"2022-05-29T20:59:55.761216","TLE_LINE2":"2 48372  53.0565  65.8614 0002173  59.7980 300.3224 15.06391609 59199","FILE":"3471362","GP_ID":"204890821","SITE":"AFETR","CLASSIFICATION_TYPE":"U","MEAN_MOTION":"15.06391609","ARG_OF_PERICENTER":"59.7980","EPHEMERIS_TYPE":"0","REV_AT_EPOCH":"5919","TLE_LINE1":"1 48372U 21038V   22149.87495094 -.00001652  00000-0 -92059-4 0  9997","PERIAPSIS":"545.734","TIME_SYSTEM":"UTC","LAUNCH_DATE":"2021-05-04","MEAN_MOTION_DOT":"-0.00001652","DECAY_DATE":null,"OBJECT_ID":"2021-038V","RCS_SIZE":"LARGE","ECCENTRICITY":"0.00021730","MEAN_ELEMENT_THEORY":"SGP4"},{"NORAD_CAT_ID":"48373","REF_FRAME":"TEME","PERIOD":"95.593","COUNTRY_CODE":"US","OBJECT_TYPE":"PAYLOAD","MEAN_MOTION_DDOT":"0.0000000000000","ELEMENT_SET_NO":"999","BSTAR":"-0.00016478000000","EPOCH":"2022-05-29T20:54:37.127520","TLE_LINE2":"2 48373  53.0543  65.8716 0001635  76.7232 283.3939 15.06394204 59197","GP_ID":"204889574","FILE":"3471362","SITE":"AFETR","SEMIMAJOR_AXIS":"6925.366","CENTER_NAME":"EARTH","INCLINATION":"53.0543","APOAPSIS":"548.364","MEAN_ANOMALY":"283.3939","OBJECT_NAME":"STARLINK-2609","RA_OF_ASC_NODE":"65.8716","PERIAPSIS":"546.099","TIME_SYSTEM":"UTC","LAUNCH_DATE":"2021-05-04","MEAN_MOTION_DOT":"-0.00002735","DECAY_DATE":null,"OBJECT_ID":"2021-038W","RCS_SIZE":"LARGE","ECCENTRICITY":"0.00016350","MEAN_ELEMENT_THEORY":"SGP4","CLASSIFICATION_TYPE":"U","MEAN_MOTION":"15.06394204","EPHEMERIS_TYPE":"0","ARG_OF_PERICENTER":"76.7232","REV_AT_EPOCH":"5919","TLE_LINE1":"1 48373U 21038W   22149.87126305 -.00002735  00000-0 -16478-3 0  9997"},{"COUNTRY_CODE":"US","OBJECT_TYPE":"PAYLOAD","PERIOD":"95.593","MEAN_MOTION_DDOT":"0.0000000000000","REF_FRAME":"TEME","NORAD_CAT_ID":"48374","ELEMENT_SET_NO":"999","BSTAR":"-0.00007265300000","EPOCH":"2022-05-29T22:24:52.473024","TLE_LINE2":"2 48374  53.0551  65.5891 0001539  57.8360 302.2778 15.06384680 59204","SITE":"AFETR","GP_ID":"204889824","FILE":"3471362","SEMIMAJOR_AXIS":"6925.396","CENTER_NAME":"EARTH","INCLINATION":"53.0551","MEAN_ANOMALY":"302.2778","OBJECT_NAME":"STARLINK-2604","APOAPSIS":"548.326","RA_OF_ASC_NODE":"65.5891","TIME_SYSTEM":"UTC","PERIAPSIS":"546.195","LAUNCH_DATE":"2021-05-04","MEAN_MOTION_DOT":"-0.00001363","DECAY_DATE":null,"OBJECT_ID":"2021-038X","MEAN_ELEMENT_THEORY":"SGP4","ECCENTRICITY":"0.00015390","RCS_SIZE":"LARGE","CLASSIFICATION_TYPE":"U","MEAN_MOTION":"15.06384680","ARG_OF_PERICENTER":"57.8360","EPHEMERIS_TYPE":"0","REV_AT_EPOCH":"5920","TLE_LINE1":"1 48374U 21038X   22149.93394066 -.00001363  00000-0 -72653-4 0  9990"}];
